NORAD_CAT_ID,OBJECT_NAME,OBJECT_TYPE,EPOCH,MEAN_MOTION,ECCENTRICITY,INCLINATION,RA_OF_ASC_NODE,ARG_OF_PERICENTER,MEAN_ANOMALY,BSTAR,MEAN_MOTION_DOT,MEAN_MOTION_DDOT,TLE_LINE0,TLE_LINE1,TLE_LINE2,SEMIMAJOR_AXIS,PERIOD,APOGEE,PERIGEE,DECAYED
51964.0,STARLINK-3690,PAYLOAD,2023-11-10 12:32:56,15.08017202,0.0001653,53.0529,243.6968,80.1322,279.9854,0.00020859,2.962e-05,0.0,0 STARLINK-3690,1 51964U 22025J   23314.52287496  .00002962  00000-0  20859-3 0  9998,2 51964  53.0529 243.6968 0001653  80.1322 279.9854 15.08017202 92832,6920.396,95.49,543.405,541.118,0.0
51964.0,STARLINK-3690,PAYLOAD,2023-11-11 12:24:29,15.08030763,0.0001209,53.0543,239.2203,77.6961,282.4164,0.00032912,4.842e-05,0.0,0 STARLINK-3690,1 51964U 22025J   23315.51700712  .00004842  00000-0  32912-3 0  9991,2 51964  53.0543 239.2203 0001209  77.6961 282.4164 15.08030763 92984,6920.355,95.489,543.057,541.383,0.0
51964.0,STARLINK-3690,PAYLOAD,2023-11-11 18:46:14,15.08034424,0.0001437,53.0547,238.026,88.5376,271.5778,0.00033583,4.947e-05,0.0,0 STARLINK-3690,1 51964U 22025J   23315.78210710  .00004947  00000-0  33583-3 0  9995,2 51964  53.0547 238.0260 0001437  88.5376 271.5778 15.08034424 94117,6920.344,95.489,543.203,541.214,0.0
51964.0,STARLINK-3690,PAYLOAD,2023-11-12 01:07:58,15.08046633,0.0001333,53.0539,236.8346,88.8778,271.2365,0.00056483,8.522e-05,0.0,0 STARLINK-3690,1 51964U 22025J   23316.04720107  .00008522  00000-0  56483-3 0  9998,2 51964  53.0539 236.8346 0001333  88.8778 271.2365 15.08046633 94151,6920.306,95.488,543.094,541.249,0.0
51964.0,STARLINK-3690,PAYLOAD,2023-11-12 12:16:00,15.08051268,0.0001209,53.0542,234.7483,84.0259,276.0868,0.00061029,9.233e-05,0.0,0 STARLINK-3690,1 51964U 22025J   23316.51112264  .00009233  00000-0  61029-3 0  9991,2 51964  53.0542 234.7483 0001209  84.0259 276.0868 15.08051268 93136,6920.292,95.487,542.994,541.321,0.0
51964.0,STARLINK-3690,PAYLOAD,2023-11-12 18:37:45,15.08044967,0.0001778,53.0535,233.5539,95.8828,264.2364,0.0003415,5.037e-05,0.0,0 STARLINK-3690,1 51964U 22025J   23316.77622386  .00005037  00000-0  34150-3 0  9993,2 51964  53.0535 233.5539 0001778  95.8828 264.2364 15.08044967 94263,6920.312,95.488,543.407,540.946,0.0
51964.0,STARLINK-3690,PAYLOAD,2023-11-13 04:10:21,15.08056743,0.0001545,53.0544,231.7616,107.7426,252.3732,0.00033616,4.955e-05,0.0,0 STARLINK-3690,1 51964U 22025J   23317.17386380  .00004955  00000-0  33616-3 0  9993,2 51964  53.0544 231.7616 0001545 107.7426 252.3732 15.08056743 93236,6920.276,95.487,543.21,541.071,0.0
51964.0,STARLINK-3690,PAYLOAD,2023-11-14 00:51:02,15.08035285,0.0001383,53.054,227.8874,86.435,273.6798,-4.7452e-05,-1.025e-05,0.0,0 STARLINK-3690,1 51964U 22025J   23318.03544344 -.00001025  00000-0 -47452-4 0  9996,2 51964  53.0540 227.8874 0001383  86.4350 273.6798 15.08035285 94454,6920.341,95.488,543.163,541.249,0.0
51964.0,STARLINK-3690,PAYLOAD,2023-11-15 13:26:04,15.08032703,0.0001472,53.0546,221.0264,89.2609,270.8549,0.00012998,1.738e-05,0.0,0 STARLINK-3690,1 51964U 22025J   23319.55976956  .00001738  00000-0  12998-3 0  9997,2 51964  53.0546 221.0264 0001472  89.2609 270.8549 15.08032703 93595,6920.349,95.489,543.233,541.195,0.0
51964.0,STARLINK-3690,PAYLOAD,2023-11-15 18:12:22,15.08027531,0.0001497,53.0547,220.1303,88.6819,271.4342,6.0309e-05,6.53e-06,0.0,0 STARLINK-3690,1 51964U 22025J   23319.75859644  .00000653  00000-0  60309-4 0  9998,2 51964  53.0547 220.1303 0001497  88.6819 271.4342 15.08027531 94719,6920.365,95.489,543.266,541.194,0.0
51964.0,STARLINK-3690,PAYLOAD,2023-11-16 03:44:59,15.08034207,0.0001554,53.0553,218.3417,89.011,271.1058,0.00017055,2.37e-05,0.0,0 STARLINK-3690,1 51964U 22025J   23320.15624389  .00002370  00000-0  17055-3 0  9997,2 51964  53.0553 218.3417 0001554  89.0110 271.1058 15.08034207 93688,6920.344,95.489,543.285,541.134,0.0
51964.0,STARLINK-3690,PAYLOAD,2023-11-17 03:36:31,15.08031609,0.000146,53.0533,213.8669,86.068,274.0476,0.00027217,3.954e-05,0.0,0 STARLINK-3690,1 51964U 22025J   23321.15036867  .00003954  00000-0  27217-3 0  9996,2 51964  53.0533 213.8669 0001460  86.0680 274.0476 15.08031609 94927,6920.352,95.489,543.228,541.207,0.0
51964.0,STARLINK-3690,PAYLOAD,2023-11-17 09:58:16,15.08024056,0.0001535,53.0534,212.6743,87.7087,272.4078,2.5913e-05,1.17e-06,0.0,0 STARLINK-3690,1 51964U 22025J   23321.41547349  .00000117  00000-0  25913-4 0  9997,2 51964  53.0534 212.6743 0001535  87.7087 272.4078 15.08024056 94962,6920.376,95.489,543.303,541.178,0.0
51964.0,STARLINK-3690,PAYLOAD,2023-11-17 22:41:45,15.0803247,0.0001532,53.0532,210.2882,90.236,269.8806,0.00013313,1.787e-05,0.0,0 STARLINK-3690,1 51964U 22025J   23321.94566986  .00001787  00000-0  13313-3 0  9997,2 51964  53.0532 210.2882 0001532  90.2360 269.8806 15.08032470 93954,6920.35,95.489,543.275,541.155,0.0
51964.0,STARLINK-3690,PAYLOAD,2023-11-18 03:28:04,15.08038233,0.0001458,53.0527,209.3939,91.0291,269.0866,0.00021645,3.086e-05,0.0,0 STARLINK-3690,1 51964U 22025J   23322.14449211  .00003086  00000-0  21645-3 0  9992,2 51964  53.0527 209.3939 0001458  91.0291 269.0866 15.08038233 95075,6920.332,95.488,543.206,541.188,0.0
51964.0,STARLINK-3690,PAYLOAD,2023-11-18 09:49:48,15.08035101,0.0001445,53.0527,208.2001,103.3448,256.7703,0.00017748,2.479e-05,0.0,0 STARLINK-3690,1 51964U 22025J   23322.40959283  .00002479  00000-0  17748-3 0  9990,2 51964  53.0527 208.2001 0001445 103.3448 256.7703 15.08035101 94028,6920.342,95.488,543.207,541.207,0.0
51964.0,STARLINK-3690,PAYLOAD,2023-11-18 22:33:16,15.0803059,0.0001452,53.0527,205.8145,91.612,268.5036,-0.00025715,-4.287e-05,0.0,0 STARLINK-3690,1 51964U 22025J   23322.93977968 -.00004287  00000-0 -25715-3 0  9992,2 51964  53.0527 205.8145 0001452  91.6120 268.5036 15.08030590 94100,6920.356,95.489,543.225,541.216,0.0
51964.0,STARLINK-3690,PAYLOAD,2023-11-19 09:41:19,15.08026796,0.000148,53.0525,203.7265,92.6635,267.4524,-0.00043758,-7.091e-05,0.0,0 STARLINK-3690,1 51964U 22025J   23323.40370282 -.00007091  00000-0 -43758-3 0  9994,2 51964  53.0525 203.7265 0001480  92.6635 267.4524 15.08026796 95262,6920.367,95.489,543.256,541.208,0.0
51964.0,STARLINK-3690,PAYLOAD,2023-11-19 22:24:49,15.08023023,0.0001494,53.0527,201.3401,91.5473,268.5688,-0.00028013,-4.644e-05,0.0,0 STARLINK-3690,1 51964U 22025J   23323.93390655 -.00004644  00000-0 -28013-3 0  9996,2 51964  53.0527 201.3401 0001494  91.5473 268.5688 15.08023023 94254,6920.379,95.489,543.278,541.21,0.0
51964.0,STARLINK-3690,PAYLOAD,2023-11-20 09:32:52,15.08024969,0.0001551,53.0527,199.2522,90.915,269.2018,-0.00015772,-2.74e-05,0.0,0 STARLINK-3690,1 51964U 22025J   23324.39783246 -.00002740  00000-0 -15772-3 0  9992,2 51964  53.0527 199.2522 0001551  90.9150 269.2018 15.08024969 94325,6920.373,95.489,543.311,541.164,0.0
51964.0,STARLINK-3690,PAYLOAD,2023-11-20 19:05:28,15.0804384,0.0001425,53.0533,197.4625,89.0513,271.064,-0.00047228,-7.634e-05,0.0,0 STARLINK-3690,1 51964U 22025J   23324.79547337 -.00007634  00000-0 -47228-3 0  9993,2 51964  53.0533 197.4625 0001425  89.0513 271.0640 15.08043840 95476,6920.315,95.488,543.166,541.194,0.0
51964.0,STARLINK-3690,PAYLOAD,2023-11-20 22:16:21,15.08032378,0.0001545,53.0532,196.8659,91.4036,268.713,-3.1628e-06,-3.35e-06,0.0,0 STARLINK-3690,1 51964U 22025J   23324.92803135 -.00000335  00000-0 -31628-5 0  9999,2 51964  53.0532 196.8659 0001545  91.4036 268.7130 15.08032378 94408,6920.35,95.489,543.284,541.146,0.0
51964.0,STARLINK-3690,PAYLOAD,2023-11-21 20:32:29,15.0802892,0.0001674,53.0537,192.6893,95.7853,264.3328,0.00034961,5.161e-05,0.0,0 STARLINK-3690,1 51964U 22025J   23325.85589277  .00005161  00000-0  34961-3 0  9991,2 51964  53.0537 192.6893 0001674  95.7853 264.3328 15.08028920 94548,6920.361,95.489,543.384,541.067,0.0
51964.0,STARLINK-3690,PAYLOAD,2023-11-21 22:07:55,15.08030385,0.0001628,53.0536,192.391,95.0908,265.0267,0.00033893,4.995e-05,0.0,0 STARLINK-3690,1 51964U 22025J   23325.92216719  .00004995  00000-0  33893-3 0  9994,2 51964  53.0536 192.3910 0001628  95.0908 265.0267 15.08030385 95647,6920.356,95.489,543.348,541.095,0.0
51964.0,STARLINK-3690,PAYLOAD,2023-11-22 14:02:16,15.0803936,0.0001561,53.053,189.4081,96.774,263.3427,0.00038872,5.772e-05,0.0,0 STARLINK-3690,1 51964U 22025J   23326.58491386  .00005772  00000-0  38872-3 0  9998,2 51964  53.0530 189.4081 0001561  96.7740 263.3427 15.08039360 94656,6920.329,95.488,543.274,541.113,0.0
51964.0,STARLINK-3690,PAYLOAD,2023-11-22 20:24:01,15.08039204,0.0001627,53.0538,188.2169,95.6788,264.4387,0.00034987,5.166e-05,0.0,0 STARLINK-3690,1 51964U 22025J   23326.85001401  .00005166  00000-0  34987-3 0  9993,2 51964  53.0538 188.2169 0001627  95.6788 264.4387 15.08039204 94699,6920.329,95.488,543.32,541.068,0.0
51964.0,STARLINK-3690,PAYLOAD,2023-11-23 18:40:08,15.08023291,0.0001575,53.054,184.0416,100.2699,259.8468,8.0011e-06,-1.61e-06,0.0,0 STARLINK-3690,1 51964U 22025J   23327.77787237 -.00000161  00000-0  80011-5 0  9995,2 51964  53.0540 184.0416 0001575 100.2699 259.8468 15.08023291 95921,6920.378,95.489,543.333,541.153,0.0
51964.0,STARLINK-3690,PAYLOAD,2023-11-23 21:51:00,15.08020659,0.000152,53.0539,183.4404,95.641,264.4753,-6.2138e-05,-1.253e-05,0.0,0 STARLINK-3690,1 51964U 22025J   23327.91042330 -.00001253  00000-0 -62138-4 0  9992,2 51964  53.0539 183.4404 0001520  95.6410 264.4753 15.08020659 94852,6920.386,95.489,543.303,541.199,0.0
51964.0,STARLINK-3690,PAYLOAD,2023-11-24 13:45:22,15.08029005,0.0001406,53.053,180.4592,97.215,262.9,-0.00013663,-2.412e-05,0.0,0 STARLINK-3690,1 51964U 22025J   23328.57317308 -.00002412  00000-0 -13663-3 0  9991,2 51964  53.0530 180.4592 0001406  97.2150 262.9000 15.08029005 94953,6920.36,95.489,543.198,541.252,0.0
51964.0,STARLINK-3690,PAYLOAD,2023-11-24 20:07:06,15.08030703,0.00015,53.0533,179.2683,102.2528,257.863,6.7203e-05,7.6e-06,0.0,0 STARLINK-3690,1 51964U 22025J   23328.83827193  .00000760  00000-0  67203-4 0  9990,2 51964  53.0533 179.2683 0001500 102.2528 257.8630 15.08030703 96089,6920.355,95.489,543.258,541.182,0.0
